0 IRIDIUM 42
1 25077U 97077A   13281.41085678  .00000313  00000-0  10470-3 0  4981
2 25077 086.3990 225.2687 0002053 099.0050 261.1378 14.34220596828993
0 IRIDIUM 42
1 25077U 97077A   13282.45738270  .00000330  00000-0  11072-3 0  4998
2 25077 086.3992 224.8316 0002042 099.0484 261.0943 14.34222797829148
0 IRIDIUM 42
1 25077U 97077A   13283.43413899  .00000315  00000-0  10554-3 0  5004
2 25077 086.3993 224.4236 0002029 099.2538 260.8887 14.34223544829283
0 IRIDIUM 42
1 25077U 97077A   13284.34112644  .00000335  00000-0  11264-3 0  5011
2 25077 086.3995 224.0446 0002025 099.4307 260.7118 14.34224019829415
0 IRIDIUM 42
1 25077U 97077A   13285.38764976  .00000299  00000-0  99735-4 0  5027
2 25077 086.3998 223.6074 0002018 099.6838 260.4585 14.34224675829562
0 IRIDIUM 42
1 25077U 97077A   13286.36440428  .00000328  00000-0  11006-3 0  5037
2 25077 086.3999 223.1994 0002014 099.9302 260.2121 14.34225215829705
0 IRIDIUM 42
1 25077U 97077A   13287.34115844  .00000379  00000-0  12811-3 0  5049
2 25077 086.4001 222.7915 0002007 100.1508 259.9915 14.34225884829846
0 IRIDIUM 42
1 25077U 97077A   13288.31791209  .00000510  00000-0  17494-3 0  5052
2 25077 086.4003 222.3835 0002007 099.8933 260.2490 14.34227074829982
0 IRIDIUM 42
1 25077U 97077A   13289.01559277  .00000442  00000-0  15085-3 0  5066
2 25077 086.4003 222.0922 0002004 100.3707 259.7715 14.34227965830085
0 IRIDIUM 42
1 25077U 97077A   13289.78304858  .00000441  00000-0  15041-3 0  5075
2 25077 086.3997 221.7721 0002080 098.4655 261.6777 14.34215544830194
0 IRIDIUM 42
1 25077U 97077A   13290.34119750  .00000064  00000-0  15849-4 0  5083
2 25077 086.3994 221.5393 0002081 097.7017 262.4415 14.34214867830273
0 IRIDIUM 42
1 25077U 97077A   13291.31795782  .00000068  00000-0  17313-4 0  5099
2 25077 086.4003 221.1308 0002057 100.2366 259.9061 14.34215316830411
0 IRIDIUM 42
1 25077U 97077A   13292.36448620  .00000069  00000-0  17508-4 0  5100
2 25077 086.4004 220.6941 0002048 102.1154 258.0272 14.34216424830566
0 IRIDIUM 42
1 25077U 97077A   13293.41101389  .00000067  00000-0  16863-4 0  5117
2 25077 086.4004 220.2570 0002024 101.2306 258.9117 14.34217803830719
0 IRIDIUM 42
1 25077U 97077A   13293.89939332  .00000064  00000-0  15839-4 0  5126
2 25077 086.4005 220.0532 0001987 101.1052 259.0367 14.34218023830781
0 IRIDIUM 42
1 25077U 97077A   13294.94592009  .00000507  00000-0  17398-3 0  5133
2 25077 086.4003 219.6163 0001995 101.6374 258.5046 14.34220190830937
0 IRIDIUM 42
1 25077U 97077A   13295.36453072  .00000504  00000-0  17303-3 0  5140
2 25077 086.4003 219.4415 0001997 101.7865 258.3555 14.34221047830994
